{
    "links": {
        "self": "http://www.neowsapp.com/rest/v1/neo/3774064?api_key=iIulBulltgU6a56xZRHN4H3l9WmuAYTsLGpBGhQ2"
    },
    "id": "3774064",
    "neo_reference_id": "3774064",
    "name": "(2017 HW2)",
    "designation": "2017 HW2",
    "nasa_jpl_url": "http://ssd.jpl.nasa.gov/sbdb.cgi?sstr=3774064",
    "absolute_magnitude_h": 26.6,
    "estimated_diameter": {
        "kilometers": {
            "estimated_diameter_min": 0.0127219879,
            "estimated_diameter_max": 0.0284472297
        },
        "meters": {
            "estimated_diameter_min": 12.7219878539,
            "estimated_diameter_max": 28.4472296503
        },
        "miles": {
            "estimated_diameter_min": 0.0079050743,
            "estimated_diameter_max": 0.0176762835
        },
        "feet": {
            "estimated_diameter_min": 41.7388066307,
            "estimated_diameter_max": 93.330808926
        }
    },
    "is_potentially_hazardous_asteroid": false,
    "close_approach_data": [
        {
            "close_approach_date": "1952-07-24",
            "close_approach_date_full": "1952-Jul-24 10:19",
            "epoch_date_close_approach": -550330860000,
            "relative_velocity": {
                "kilometers_per_second": "14.6233326512",
                "kilometers_per_hour": "52643.997544432",
                "miles_per_hour": "32710.9328075388"
            },
            "miss_distance": {
                "astronomical": "0.2263683326",
                "lunar": "88.0572813814",
                "kilometers": "33864220.392411562",
                "miles": "21042250.8097090756"
            },
            "orbiting_body": "Earth"
        },
        {
            "close_approach_date": "2017-04-27",
            "close_approach_date_full": "2017-Apr-27 21:59",
            "epoch_date_close_approach": 1493330340000,
            "relative_velocity": {
                "kilometers_per_second": "9.084690802",
                "kilometers_per_hour": "32704.8868873553",
                "miles_per_hour": "20321.5448550903"
            },
            "miss_distance": {
                "astronomical": "0.0235857323",
                "lunar": "9.1748498647",
                "kilometers": "3528375.314470201",
                "miles": "2192430.7560467338"
            },
            "orbiting_body": "Earth"
        }
    ],
    "orbital_data": {
        "orbit_id": "3",
        "orbit_determination_date": "2017-04-28 06:20:03",
        "first_observation_date": "2017-04-22",
        "last_observation_date": "2017-04-27",
        "data_arc_in_days": 5,
        "observations_used": 22,
        "orbit_uncertainty": "8",
        "minimum_orbit_intersection": ".00906142",
        "jupiter_tisserand_invariant": "3.939",
        "epoch_osculation": "2457866.5",
        "eccentricity": ".4587226508324499",
        "semi_major_axis": "1.794395917126569",
        "inclination": "5.330564642726592",
        "ascending_node_longitude": "47.14679174097727",
        "orbital_period": "877.962235156427",
        "perihelion_distance": ".971265865379344",
        "perihelion_argument": "201.2912877852013",
        "aphelion_distance": "2.617525968873793",
        "perihelion_time": "2457896.149758221024",
        "mean_anomaly": "347.8424008093391",
        "mean_motion": ".4100404158452881",
        "equinox": "J2000",
        "orbit_class": {
            "orbit_class_type": "APO",
            "orbit_class_description": "Near-Earth asteroid orbits which cross the Earth’s orbit similar to that of 1862 Apollo",
            "orbit_class_range": "a (semi-major axis) > 1.0 AU; q (perihelion) < 1.017 AU"
        }
    },
    "is_sentry_object": false
}